<?xml version="1.0" encoding="UTF-8"?>
<kml xmlns="http://www.opengis.net/kml/2.2" xmlns:gx="http://www.google.com/kml/ext/2.2">
<Document>
    <name>东盟路径3</name>
    <Placemark>
        <name>东盟路径3</name>
        <Style>
            <LineStyle>
                <color>ff2dc0fb</color>
                <width>6</width>
            </LineStyle>
            <PolyStyle>
                <color>40ffffff</color>
            </PolyStyle>
        </Style>
        <LineString>
            <coordinates>
            108.161049618438,23.170822795919,102.191574
            108.161126881178,23.170742572724,102.153621
            108.161240583548,23.170682804329,102.119293
            108.161393387774,23.170642352330,102.091844
            108.161509275244,23.170626117394,102.074383
            108.161599249004,23.170646977081,102.073332
            108.161721687651,23.170729333632,102.089857
            108.161785269310,23.170829204019,102.130036
            108.161828998028,23.170973642511,102.210780
            108.161863143258,23.171151663245,102.293969
            108.161902935522,23.171426803019,102.413946
            108.161947684190,23.171736903279,102.520485
            108.161944512914,23.171828470556,102.628897
            108.161920953599,23.171930710983,102.759132
            108.161858610450,23.172017500448,102.889677
            108.161782643941,23.172084972463,103.006303
            108.161679689581,23.172146107071,103.105051
            108.161593041209,23.172162556016,103.144468
            108.161473749199,23.172154679319,103.162761
            108.161396368660,23.172132972339,103.155047
            108.161262089449,23.172074360177,103.116999
            108.161174708924,23.171989363217,103.037045
            108.161133374281,23.171872919825,102.910454
            108.161056137670,23.171510369712,102.528048
            108.160994553258,23.171236822207,102.406078
            108.160972374026,23.171009338762,102.300228
            108.161048533215,23.170821710206,102.191258
            108.161047631243,23.170817963026,102.189534
            108.161049618438,23.170822795919,102.191574
            </coordinates>
        </LineString>
    </Placemark>
</Document>
</kml>