<?xml version="1.0" encoding="UTF-8"?>
<kml xmlns="http://www.opengis.net/kml/2.2" xmlns:gx="http://www.google.com/kml/ext/2.2">
<Document>
    <name>东盟路径5</name>
    <Placemark>
        <name>东盟路径5</name>
        <Style>
            <LineStyle>
                <color>ff2dc0fb</color>
                <width>6</width>
            </LineStyle>
            <PolyStyle>
                <color>40ffffff</color>
            </PolyStyle>
        </Style>
        <LineString>
            <coordinates>
            108.161862965285,23.171312772851,102.348671
            108.161909690190,23.171566642230,102.461918
            108.161937437083,23.171826080236,102.629405
            108.161882239756,23.171976916723,102.834132
            108.161780701264,23.172097477298,103.022600
            108.161618210857,23.172162848426,103.139007
            108.161407404374,23.172150614378,103.173248
            108.161257720193,23.172084880334,103.130298
            108.161143716536,23.171982126154,103.035572
            108.161094919329,23.171850225425,102.892396
            108.161065900593,23.171635863074,102.648316
            108.161029971796,23.171362107835,102.461769
            108.160973130282,23.171046269497,102.318542
            108.161034034536,23.170806279243,102.188424
            108.161146149041,23.170696781365,102.134689
            108.161310754337,23.170636644397,102.097153
            108.161463042298,23.170639518182,102.084591
            108.161600951289,23.170691121963,102.089565
            108.161736347117,23.170812588886,102.118096
            108.161789328358,23.170970162244,102.183427
            108.161813164364,23.171110186108,102.246819
            108.161864419601,23.171309581889,102.348541
            108.161862965285,23.171312772851,102.348671
            </coordinates>
        </LineString>
    </Placemark>
</Document>
</kml>