<?xml version="1.0" encoding="UTF-8"?>
<kml xmlns="http://www.opengis.net/kml/2.2" xmlns:gx="http://www.google.com/kml/ext/2.2">
<Document>
    <name>东盟路径4</name>
    <Placemark>
        <name>东盟路径4</name>
        <Style>
            <LineStyle>
                <color>ff2dc0fb</color>
                <width>6</width>
            </LineStyle>
            <PolyStyle>
                <color>40ffffff</color>
            </PolyStyle>
        </Style>
        <LineString>
            <coordinates>
            108.160978115236,23.170953680601,102.271702
            108.161077736876,23.170774043354,102.172944
            108.161182150347,23.170668258557,102.120543
            108.161317503380,23.170609807368,102.087621
            108.161448929764,23.170602037235,102.073368
            108.161564143144,23.170642937249,102.076776
            108.161697156552,23.170728206506,102.093420
            108.161779475302,23.170896404561,102.151816
            108.161862222751,23.171208448630,102.312621
            108.161936177060,23.171719762123,102.505980
            108.161950270465,23.171859917331,102.662711
            108.161890902605,23.172018027319,102.878467
            108.161821764387,23.172092192496,102.996769
            108.161700768722,23.172142345304,103.095755
            108.161534673840,23.172159848697,103.154750
            108.161440163276,23.172167327898,103.185400
            108.161373842618,23.172151858926,103.182472
            108.161289269747,23.172138959624,103.186804
            108.161217380764,23.172085941432,103.140891
            108.161168890533,23.172031297768,103.087686
            108.161108179893,23.171953392112,103.009948
            108.161080572102,23.171858521488,102.904793
            108.161034513683,23.171655033042,102.677869
            108.161022033574,23.171517501958,102.540432
            108.160995644693,23.171315249184,102.446314
            108.160968382122,23.171194986255,102.393026
            108.160947703942,23.171129180292,102.365172
            108.160942343129,23.171017886132,102.311438
            108.160977986654,23.170947169039,102.268515
            108.160978115236,23.170953680601,102.271702
            </coordinates>
        </LineString>
    </Placemark>
</Document>
</kml>