<?xml version="1.0" encoding="UTF-8"?>
<kml xmlns="http://www.opengis.net/kml/2.2" xmlns:gx="http://www.google.com/kml/ext/2.2">
<Document>
    <name>东盟路径1</name>
    <Placemark>
        <name>东盟路径1</name>
        <Style>
            <LineStyle>
                <color>ff2dc0fb</color>
                <width>6</width>
            </LineStyle>
            <PolyStyle>
                <color>40ffffff</color>
            </PolyStyle>
        </Style>
        <LineString>
            <coordinates>
            108.161024357434,23.170839829683,102.205961
            108.161108689387,23.170728178925,102.150619
            108.161179963909,23.170689918300,102.128546
            108.161273509509,23.170660697308,102.108574
            108.161421996494,23.170640129064,102.088571
            108.161581558069,23.170659746318,102.079142
            108.161686193291,23.170730479225,102.093380
            108.161774209019,23.170861777540,102.134806
            108.161806964550,23.171019742611,102.211961
            108.161845567756,23.171258247380,102.318409
            108.161913468300,23.171603126746,102.466006
            108.161917957241,23.171816815279,102.628041
            108.161903543578,23.171894142897,102.724526
            108.161861966178,23.172019569814,102.890505
            108.161815004259,23.172055729562,102.955743
            108.161682582266,23.172132966801,103.088890
            108.161546764818,23.172153323185,103.144271
            108.161427435374,23.172149940095,103.167877
            108.161347884895,23.172124533369,103.156306
            108.161263178531,23.172079281739,103.122546
            108.161177504112,23.172009364604,103.059965
            108.161139439919,23.171904237277,102.945560
            108.161069980896,23.171568161915,102.567334
            108.161039395240,23.171363608563,102.459591
            108.160998580838,23.171106545458,102.342681
            108.160983481260,23.171025728897,102.306163
            108.160991457360,23.170928210239,102.254308
            108.161020603742,23.170841281120,102.207545
            108.161014629399,23.170838773850,102.207589
            108.161024357434,23.170839829683,102.205961
            </coordinates>
        </LineString>
    </Placemark>
</Document>
</kml>