<?xml version="1.0" encoding="UTF-8"?>
<kml xmlns="http://www.opengis.net/kml/2.2" xmlns:gx="http://www.google.com/kml/ext/2.2">
<Document>
    <name>东盟路径2</name>
    <Placemark>
        <name>东盟路径2</name>
        <Style>
            <LineStyle>
                <color>ff2dc0fb</color>
                <width>6</width>
            </LineStyle>
            <PolyStyle>
                <color>40ffffff</color>
            </PolyStyle>
        </Style>
        <LineString>
            <coordinates>
            108.161305730440,23.170631865099,102.096125
            108.161470853135,23.170630824531,102.079361
            108.161627155479,23.170692619109,102.086024
            108.161739883310,23.170792541066,102.109266
            108.161773161682,23.170907475223,102.149960
            108.161811793563,23.171080892942,102.235982
            108.161860349691,23.171324076256,102.350896
            108.161906779849,23.171660878696,102.464356
            108.161928114438,23.171831347737,102.640136
            108.161887508696,23.171951133637,102.798630
            108.161809847427,23.172053954042,102.956203
            108.161737765608,23.172107076371,103.045630
            108.161631047814,23.172138572380,103.107398
            108.161533113527,23.172150599226,103.144213
            108.161427607584,23.172150447418,103.168436
            108.161334516349,23.172117013103,103.150531
            108.161240705584,23.172054595112,103.098650
            108.161143998086,23.171936208886,102.981572
            108.161093647170,23.171766463006,102.793943
            108.161051161960,23.171536747672,102.542319
            108.161024347244,23.171333798463,102.447921
            108.161002664990,23.171125056963,102.350881
            108.160988441205,23.170981617278,102.282318
            108.161013429172,23.170881301393,102.226208
            108.161059030193,23.170799089134,102.181291
            108.161144271565,23.170711719797,102.140252
            108.161306823515,23.170631600763,102.095940
            108.161305462216,23.170626443746,102.094345
            108.161305730440,23.170631865099,102.096125
            </coordinates>
        </LineString>
    </Placemark>
</Document>
</kml>