<?xml version="1.0" encoding="UTF-8"?>
<kml xmlns="http://www.opengis.net/kml/2.2" xmlns:gx="http://www.google.com/kml/ext/2.2" xmlns:kml="http://www.opengis.net/kml/2.2" xmlns:atom="http://www.w3.org/2005/Atom">
<Document>
    <name>跑步路径</name>
    <Placemark>
        <name>跑步路线</name>
        <Style>
            <LineStyle>
                <color>ff2dc0fb</color>
                <width>6</width>
            </LineStyle>
            <PolyStyle>
                <color>40ffffff</color>
            </PolyStyle>
        </Style>
        <LineString>
            <coordinates>
                108.161291907702,23.1706649582799,102.108359522148
                108.161483518131,23.1706682559159,102.090669350523
                108.161585359088,23.1707236456474,102.10003693521
                108.16173513609,23.1708565690764,102.135261455676
                108.161792723595,23.1711178447075,102.236010657616
                108.161841914095,23.1714374405687,102.377371806984
                108.161874270988,23.171659512573,102.465462932784
                108.16187426624,23.1716529010139,102.457751630808
                108.161873971035,23.1716556455028,102.461095428403
                108.161893012904,23.1718145036669,102.637326317319
                108.161846521597,23.1719637012469,102.832781525247
                108.161661937652,23.1721125932649,103.069616029602
                108.161481692095,23.1721339587708,103.136436047373
                108.161261912257,23.172037269056,103.073572904353
                108.161161148512,23.1719123743685,102.950367737515
                108.161152277838,23.1718734119774,102.907211109954
                108.160995737561,23.1710434228316,102.312066376514
                108.161043508819,23.1708597611207,102.210664736452
                108.161290023173,23.1706846476891,102.114978055665
                108.161286096346,23.1706652275774,102.115096524113
                108.161291907702,23.1706649582799,102.108359522148
            </coordinates>
        </LineString>
    </Placemark>
    <Placemark>
        <name>地标01</name>
        <visibility>1</visibility>
        <Style>
            <IconStyle>
                <color>ffffffff</color>
                <scale>1</scale>
                <Icon>
                    <href>C:\Users\Administrator\AppData\Roaming\TuxinEarth\TxUserData\UserMarkIcon\Default\常用文件夹\666c4a3f77374de494ce05887e004188.png</href>
                </Icon>
            </IconStyle>
            <LabelStyle>
                <color>ffffffff</color>
                <scale>1</scale>
            </LabelStyle>
        </Style>
        <Point>
            <altitudeMode>absolute</altitudeMode>
            <coordinates>108.161295067459,23.170661928682,102.113122739191</coordinates>
        </Point>
    </Placemark>
    <Placemark>
        <name>新建地标1</name>
        <visibility>1</visibility>
        <Style>
            <IconStyle>
                <color>ffffffff</color>
                <scale>1</scale>
                <Icon>
                    <href>C:\Users\Administrator\AppData\Roaming\TuxinEarth\TxUserData\UserMarkIcon\Default\常用文件夹\666c4a3f77374de494ce05887e004188.png</href>
                </Icon>
            </IconStyle>
            <LabelStyle>
                <color>ffffffff</color>
                <scale>1</scale>
            </LabelStyle>
        </Style>
        <Point>
            <altitudeMode>absolute</altitudeMode>
            <coordinates>108.161740059502,23.1708579876557,102.13532876454</coordinates>
        </Point>
    </Placemark>
    <Placemark>
        <name>地标01</name>
        <visibility>1</visibility>
        <Style>
            <IconStyle>
                <color>ffffffff</color>
                <scale>1</scale>
                <Icon>
                    <href>C:\Users\Administrator\AppData\Roaming\TuxinEarth\TxUserData\UserMarkIcon\Default\常用文件夹\666c4a3f77374de494ce05887e004188.png</href>
                </Icon>
            </IconStyle>
            <LabelStyle>
                <color>ffffffff</color>
                <scale>1</scale>
            </LabelStyle>
        </Style>
        <Point>
            <altitudeMode>absolute</altitudeMode>
            <coordinates>108.161588353294,23.1707222710029,102.099314737925</coordinates>
        </Point>
    </Placemark>
    <Placemark>
        <name>地标01</name>
        <visibility>1</visibility>
        <Style>
            <IconStyle>
                <color>ffffffff</color>
                <scale>1</scale>
                <Icon>
                    <href>C:\Users\Administrator\AppData\Roaming\TuxinEarth\TxUserData\UserMarkIcon\Default\常用文件夹\666c4a3f77374de494ce05887e004188.png</href>
                </Icon>
            </IconStyle>
            <LabelStyle>
                <color>ffffffff</color>
                <scale>1</scale>
            </LabelStyle>
        </Style>
        <Point>
            <altitudeMode>absolute</altitudeMode>
            <coordinates>108.161793930712,23.1711179580682,102.236844978565</coordinates>
        </Point>
    </Placemark>
    <Placemark>
        <name>地标01</name>
        <visibility>1</visibility>
        <Style>
            <IconStyle>
                <color>ffffffff</color>
                <scale>1</scale>
                <Icon>
                    <href>C:\Users\Administrator\AppData\Roaming\TuxinEarth\TxUserData\UserMarkIcon\Default\常用文件夹\666c4a3f77374de494ce05887e004188.png</href>
                </Icon>
            </IconStyle>
            <LabelStyle>
                <color>ffffffff</color>
                <scale>1</scale>
            </LabelStyle>
        </Style>
        <Point>
            <altitudeMode>absolute</altitudeMode>
            <coordinates>108.161840595716,23.171433647034,102.375209693081</coordinates>
        </Point>
    </Placemark>
    <Placemark>
        <name>地标01</name>
        <visibility>1</visibility>
        <Style>
            <IconStyle>
                <color>ffffffff</color>
                <scale>1</scale>
                <Icon>
                    <href>C:\Users\Administrator\AppData\Roaming\TuxinEarth\TxUserData\UserMarkIcon\Default\常用文件夹\666c4a3f77374de494ce05887e004188.png</href>
                </Icon>
            </IconStyle>
            <LabelStyle>
                <color>ffffffff</color>
                <scale>1</scale>
            </LabelStyle>
        </Style>
        <Point>
            <altitudeMode>absolute</altitudeMode>
            <coordinates>108.161894911354,23.1718075984181,102.628347884129</coordinates>
        </Point>
    </Placemark>
    <Placemark>
        <name>地标01</name>
        <visibility>1</visibility>
        <Style>
            <IconStyle>
                <color>ffffffff</color>
                <scale>1</scale>
                <Icon>
                    <href>C:\Users\Administrator\AppData\Roaming\TuxinEarth\TxUserData\UserMarkIcon\Default\常用文件夹\666c4a3f77374de494ce05887e004188.png</href>
                </Icon>
            </IconStyle>
            <LabelStyle>
                <color>ffffffff</color>
                <scale>1</scale>
            </LabelStyle>
        </Style>
        <Point>
            <altitudeMode>absolute</altitudeMode>
            <coordinates>108.161842291426,23.1719607800058,102.830499520623</coordinates>
        </Point>
    </Placemark>
    <Placemark>
        <name>地标01</name>
        <visibility>1</visibility>
        <Style>
            <IconStyle>
                <color>ffffffff</color>
                <scale>1</scale>
                <Icon>
                    <href>C:\Users\Administrator\AppData\Roaming\TuxinEarth\TxUserData\UserMarkIcon\Default\常用文件夹\666c4a3f77374de494ce05887e004188.png</href>
                </Icon>
            </IconStyle>
            <LabelStyle>
                <color>ffffffff</color>
                <scale>1</scale>
            </LabelStyle>
        </Style>
        <Point>
            <altitudeMode>absolute</altitudeMode>
            <coordinates>108.161657734065,23.1721058159904,103.062611116427</coordinates>
        </Point>
    </Placemark>
    <Placemark>
        <name>地标01</name>
        <visibility>1</visibility>
        <Style>
            <IconStyle>
                <color>ffffffff</color>
                <scale>1</scale>
                <Icon>
                    <href>C:\Users\Administrator\AppData\Roaming\TuxinEarth\TxUserData\UserMarkIcon\Default\常用文件夹\666c4a3f77374de494ce05887e004188.png</href>
                </Icon>
            </IconStyle>
            <LabelStyle>
                <color>ffffffff</color>
                <scale>1</scale>
            </LabelStyle>
        </Style>
        <Point>
            <altitudeMode>absolute</altitudeMode>
            <coordinates>108.161481140639,23.1721338108962,103.136425500563</coordinates>
        </Point>
    </Placemark>
    <Placemark>
        <name>地标01</name>
        <visibility>1</visibility>
        <Style>
            <IconStyle>
                <color>ffffffff</color>
                <scale>1</scale>
                <Icon>
                    <href>C:\Users\Administrator\AppData\Roaming\TuxinEarth\TxUserData\UserMarkIcon\Default\常用文件夹\666c4a3f77374de494ce05887e004188.png</href>
                </Icon>
            </IconStyle>
            <LabelStyle>
                <color>ffffffff</color>
                <scale>1</scale>
            </LabelStyle>
        </Style>
        <Point>
            <altitudeMode>absolute</altitudeMode>
            <coordinates>108.161262637904,23.172032812242,103.068255614801</coordinates>
        </Point>
    </Placemark>
    <Placemark>
        <name>地标01</name>
        <visibility>1</visibility>
        <Style>
            <IconStyle>
                <color>ffffffff</color>
                <scale>1</scale>
                <Icon>
                    <href>C:\Users\Administrator\AppData\Roaming\TuxinEarth\TxUserData\UserMarkIcon\Default\常用文件夹\666c4a3f77374de494ce05887e004188.png</href>
                </Icon>
            </IconStyle>
            <LabelStyle>
                <color>ffffffff</color>
                <scale>1</scale>
            </LabelStyle>
        </Style>
        <Point>
            <altitudeMode>absolute</altitudeMode>
            <coordinates>108.161154369922,23.17185822011,102.889226875259</coordinates>
        </Point>
    </Placemark>
    <Placemark>
        <name>地标01</name>
        <visibility>1</visibility>
        <Style>
            <IconStyle>
                <color>ffffffff</color>
                <scale>1</scale>
                <Icon>
                    <href>C:\Users\Administrator\AppData\Roaming\TuxinEarth\TxUserData\UserMarkIcon\Default\常用文件夹\666c4a3f77374de494ce05887e004188.png</href>
                </Icon>
            </IconStyle>
            <LabelStyle>
                <color>ffffffff</color>
                <scale>1</scale>
            </LabelStyle>
        </Style>
        <Point>
            <altitudeMode>absolute</altitudeMode>
            <coordinates>108.160998876934,23.1710400327375,102.309689203554</coordinates>
        </Point>
    </Placemark>
    <Placemark>
        <name>地标01</name>
        <visibility>1</visibility>
        <Style>
            <IconStyle>
                <color>ffffffff</color>
                <scale>1</scale>
                <Icon>
                    <href>C:\Users\Administrator\AppData\Roaming\TuxinEarth\TxUserData\UserMarkIcon\Default\常用文件夹\666c4a3f77374de494ce05887e004188.png</href>
                </Icon>
            </IconStyle>
            <LabelStyle>
                <color>ffffffff</color>
                <scale>1</scale>
            </LabelStyle>
        </Style>
        <Point>
            <altitudeMode>absolute</altitudeMode>
            <coordinates>108.161045684454,23.1708537142133,102.207191895975</coordinates>
        </Point>
    </Placemark>
</Document>
</kml>
