<?xml version="1.0" encoding="UTF-8"?>
<kml xmlns="http://www.opengis.net/kml/2.2" xmlns:gx="http://www.google.com/kml/ext/2.2">
<Document>
    <name>大学路径2</name>
    <Placemark>
        <name>大学路径2</name>
        <Style>
            <LineStyle>
                <color>ff2dc0fb</color>
                <width>6</width>
            </LineStyle>
            <PolyStyle>
                <color>40ffffff</color>
            </PolyStyle>
        </Style>
        <LineString>
            <coordinates>
            108.253106704477,22.845468720841,78.380813
            108.253200851793,22.845445090935,78.224904
            108.253312977078,22.845420953976,78.218455
            108.253477287619,22.845430773172,78.112232
            108.253616885998,22.845439628325,78.019259
            108.253690193540,22.845475674226,77.900449
            108.253688336613,22.845518222843,77.806879
            108.253781712642,22.845682340921,77.395329
            108.253756983930,22.845924195923,76.871530
            108.253704672303,22.846308534715,76.739612
            108.253668925500,22.846566874799,76.833148
            108.253624546682,22.846697394868,76.949627
            108.253530611359,22.846789143782,77.196641
            108.253455361729,22.846834721568,77.394047
            108.253401791518,22.846837460092,77.534848
            108.253295628309,22.846856810488,77.813541
            108.253232953641,22.846850046671,77.978153
            108.253085425004,22.846825676901,78.333975
            108.253019917038,22.846812127487,78.486537
            108.252971484146,22.846771093263,78.609840
            108.252894995478,22.846671944263,78.813955
            108.252893430509,22.846652782721,78.824004
            108.252869842236,22.846532503587,78.918033
            108.252900926454,22.846288798038,78.838648
            108.252934147166,22.846089040626,78.751659
            108.252945210253,22.845956611343,78.723383
            108.252963167801,22.845797134882,78.700235
            108.253001637533,22.845601944052,78.629286
            108.253042770604,22.845517439809,78.535245
            108.253102490978,22.845466627677,78.392095
            108.253106464592,22.845466465483,78.381821
            108.253106704477,22.845468720841,78.380813
            </coordinates>
        </LineString>
    </Placemark>
</Document>
</kml>