<?xml version="1.0" encoding="UTF-8"?>
<kml xmlns="http://www.opengis.net/kml/2.2" xmlns:gx="http://www.google.com/kml/ext/2.2">
<Document>
    <name>大学路径4</name>
    <Placemark>
        <name>大学路径4</name>
        <Style>
            <LineStyle>
                <color>ff2dc0fb</color>
                <width>6</width>
            </LineStyle>
            <PolyStyle>
                <color>40ffffff</color>
            </PolyStyle>
        </Style>
        <LineString>
            <coordinates>
            108.252958867233,22.845990320452,78.686987
            108.253018818698,22.845666307461,78.579136
            108.253086085407,22.845465870838,78.432463
            108.253288658540,22.845408247625,78.264228
            108.253448856785,22.845417532788,78.161442
            108.253616526616,22.845451230072,77.997963
            108.253719613399,22.845523079937,77.784561
            108.253796404792,22.845654932213,77.434204
            108.253812827314,22.845785788557,77.117051
            108.253789341621,22.845918358163,76.865336
            108.253762866999,22.846079954818,76.586754
            108.253703660481,22.846475973154,76.742160
            108.253606112556,22.846756275006,76.998370
            108.253449818542,22.846855100707,77.408472
            108.253352736048,22.846883090396,77.663250
            108.253214771381,22.846879348804,78.023416
            108.253097580477,22.846852683669,78.300514
            108.253027391413,22.846804557529,78.472309
            108.252990890856,22.846755302142,78.570929
            108.252942730353,22.846715554730,78.693247
            108.252931082786,22.846681458998,78.731147
            108.252906306441,22.846648676267,78.798226
            108.252861202706,22.846542370536,78.936160
            108.252926790972,22.846088290944,78.773609
            108.252957406264,22.845993035193,78.690307
            108.252958867233,22.845990320452,78.686987
            </coordinates>
        </LineString>
    </Placemark>
</Document>
</kml>