<?xml version="1.0" encoding="UTF-8"?>
<kml xmlns="http://www.opengis.net/kml/2.2" xmlns:gx="http://www.google.com/kml/ext/2.2">
<Document>
    <name>大学路径6</name>
    <Placemark>
        <name>大学路径6</name>
        <Style>
            <LineStyle>
                <color>ff2dc0fb</color>
                <width>6</width>
            </LineStyle>
            <PolyStyle>
                <color>40ffffff</color>
            </PolyStyle>
        </Style>
        <LineString>
            <coordinates>
            108.252955758925,22.845917301078,78.707242
            108.253012102991,22.845596759984,78.606888
            108.253064083194,22.845457810928,78.490620
            108.253274363616,22.845415505450,78.251328
            108.253527327537,22.845428634936,78.091487
            108.253671335141,22.845475486708,77.911134
            108.253783429321,22.845626108363,77.520030
            108.253789201440,22.845810986809,77.101574
            108.253773059690,22.845972037821,76.759071
            108.253732070350,22.846302924555,76.667547
            108.253659028031,22.846664587588,76.859450
            108.253591918136,22.846754928358,77.035725
            108.253540913448,22.846793836849,77.169442
            108.253406853671,22.846851869780,77.521232
            108.253265878782,22.846867843999,77.891233
            108.253177402315,22.846859581087,78.115614
            108.253071665682,22.846824332152,78.365589
            108.252992130556,22.846797262701,78.554426
            108.252899750607,22.846733844981,78.784097
            108.252823388674,22.846662456932,78.980732
            108.252797573342,22.846558846293,79.074213
            108.252810644007,22.846431012259,79.075189
            108.252870554259,22.846171989724,78.919632
            108.252954722896,22.845918836956,78.709725
            108.252955758925,22.845917301078,78.707242
            </coordinates>
        </LineString>
    </Placemark>
</Document>
</kml>