<?xml version="1.0" encoding="UTF-8"?>
<kml xmlns="http://www.opengis.net/kml/2.2" xmlns:gx="http://www.google.com/kml/ext/2.2">
<Document>
    <name>大学路径1</name>
    <Placemark>
        <name>大学路径1</name>
        <Style>
            <LineStyle>
                <color>ff2dc0fb</color>
                <width>6</width>
            </LineStyle>
            <PolyStyle>
                <color>40ffffff</color>
            </PolyStyle>
        </Style>
        <LineString>
            <coordinates>
            108.253655059355,22.846643454142,76.869864
            108.253513734042,22.846820670774,77.240753
            108.253309221224,22.846873498424,77.777463
            108.253135918576,22.846880990771,78.203183
            108.252978677413,22.846808522242,78.580974
            108.252831173712,22.846655928780,78.965374
            108.252826464558,22.846409654713,79.034095
            108.252913509949,22.846084643490,78.808109
            108.252962109952,22.845800339587,78.707742
            108.253010777139,22.845588150850,78.611617
            108.253010777133,22.845588150852,78.611617
            108.253077443128,22.845447008840,78.457766
            108.253148275265,22.845421624329,78.305360
            108.253330510044,22.845393757375,78.270921
            108.253431024665,22.845392255062,78.222696
            108.253552154958,22.845419951971,78.097247
            108.253633946100,22.845453803746,77.978877
            108.253667558580,22.845480050237,77.903135
            108.253717513833,22.845556415011,77.708543
            108.253800893486,22.845694419589,77.339068
            108.253796153118,22.845802865946,77.105986
            108.253781132940,22.845874966783,76.970541
            108.253773561323,22.845944207649,76.820627
            108.253763659073,22.846020335761,76.653975
            108.253762211707,22.846019926535,76.655661
            108.253742932347,22.846165623447,76.639117
            108.253690751710,22.846467719095,76.776184
            108.253652569618,22.846638721053,76.876384
            108.253652604195,22.846639859079,76.876293
            108.253655059355,22.846643454142,76.869864
            </coordinates>
        </LineString>
    </Placemark>
</Document>
</kml>