<?xml version="1.0" encoding="UTF-8"?>
<kml xmlns="http://www.opengis.net/kml/2.2" xmlns:gx="http://www.google.com/kml/ext/2.2">
<Document>
    <name>大学路径5</name>
    <Placemark>
        <name>大学路径5</name>
        <Style>
            <LineStyle>
                <color>ff2dc0fb</color>
                <width>6</width>
            </LineStyle>
            <PolyStyle>
                <color>40ffffff</color>
            </PolyStyle>
        </Style>
        <LineString>
            <coordinates>
            108.253802563652,22.845756401093,77.198971
            108.253780463506,22.845932361820,76.843391
            108.253737407555,22.846191509605,76.653564
            108.253704654674,22.846420334721,76.739545
            108.253612457919,22.846732737681,76.981812
            108.253400414969,22.846855205010,77.538129
            108.253324995140,22.846867033952,77.736066
            108.253223126830,22.846866299553,78.003556
            108.253127298621,22.846856074986,78.231392
            108.253047806930,22.846821303295,78.420500
            108.252971390221,22.846759178627,78.614241
            108.252934716810,22.846695963962,78.718008
            108.252890757607,22.846608119257,78.847107
            108.252890811958,22.846506839387,78.866968
            108.252892278281,22.846420649947,78.863151
            108.252909872695,22.846294809817,78.817466
            108.252939209380,22.846096390849,78.741318
            108.252977413817,22.845851307732,78.660284
            108.252998016400,22.845717081556,78.626072
            108.253027435293,22.845593733451,78.567255
            108.253078908245,22.845509925213,78.444569
            108.253151039164,22.845465675569,78.268387
            108.253315126490,22.845446240015,78.166160
            108.253517814102,22.845456917617,78.038444
            108.253668855676,22.845534622971,77.786436
            108.253762286613,22.845586510528,77.621421
            108.253802558459,22.845752283299,77.208030
            108.253802563652,22.845756401093,77.198971
            </coordinates>
        </LineString>
    </Placemark>
</Document>
</kml>