<?xml version="1.0" encoding="UTF-8"?>
<kml xmlns="http://www.opengis.net/kml/2.2" xmlns:gx="http://www.google.com/kml/ext/2.2">
<Document>
    <name>大学路径3</name>
    <Placemark>
        <name>大学路径3</name>
        <Style>
            <LineStyle>
                <color>ff2dc0fb</color>
                <width>6</width>
            </LineStyle>
            <PolyStyle>
                <color>40ffffff</color>
            </PolyStyle>
        </Style>
        <LineString>
            <coordinates>
            108.253054169453,22.845484115838,78.512422
            108.253216984990,22.845426109253,78.261291
            108.253364658892,22.845400860521,78.241686
            108.253510366673,22.845418681673,78.126544
            108.253687290798,22.845490382922,77.873835
            108.253806162375,22.845679217330,77.363727
            108.253792674618,22.845874046226,76.957128
            108.253763527720,22.846081968986,76.585018
            108.253702991420,22.846450893227,76.743915
            108.253652258814,22.846638762275,76.877218
            108.253558694414,22.846772048482,77.122794
            108.253410805940,22.846854279270,77.510858
            108.253294272612,22.846866210306,77.816701
            108.253228323496,22.846864009956,77.989904
            108.253150798358,22.846847359181,78.180622
            108.253094635645,22.846823649016,78.313949
            108.253034655264,22.846785523003,78.462388
            108.252994060925,22.846742112906,78.568244
            108.252965085871,22.846702375730,78.647209
            108.252907156872,22.846646345948,78.797097
            108.252876305523,22.846583260681,78.888180
            108.252880199547,22.846493351653,78.894530
            108.252901425327,22.846410701178,78.839393
            108.252918796688,22.846329816137,78.794281
            108.252918796982,22.846259675209,78.794296
            108.252941965413,22.846167972827,78.734115
            108.252994166688,22.845806344445,78.623069
            108.253056102773,22.845478687888,78.508214
            108.253054169453,22.845484115838,78.512422
            </coordinates>
        </LineString>
    </Placemark>
</Document>
</kml>